start=new Date('2022-12-29T00:00:00.000Z').valueOf();
sats=[{"BSTAR":"0.00039275000000","CLASSIFICATION_TYPE":"U","ARG_OF_PERICENTER":"37.4289","RA_OF_ASC_NODE":"275.6841","MEAN_MOTION_DOT":"0.00005972","TLE_LINE2":"2 53531  53.2157 275.6841 0002744  37.4289 322.6894 15.08864639 19896","TIME_SYSTEM":"UTC","TLE_LINE1":"1 53531U 22101E   22362.08849635  .00005972  00000-0  39275-3 0  9993","PERIAPSIS":"537.772","EPOCH":"2022-12-28T02:07:26.084640","GP_ID":"221665489","EPHEMERIS_TYPE":"0","COUNTRY_CODE":"US","SITE":"AFETR","CENTER_NAME":"EARTH","APOAPSIS":"541.568","MEAN_ANOMALY":"322.6894","RCS_SIZE":"LARGE","OBJECT_NAME":"STARLINK-4487","OBJECT_TYPE":"PAYLOAD","PERIOD":"95.436","NORAD_CAT_ID":"53531","OBJECT_ID":"2022-101E","ELEMENT_SET_NO":"999","SEMIMAJOR_AXIS":"6917.805","LAUNCH_DATE":"2022-08-19","ECCENTRICITY":"0.00027440","REF_FRAME":"TEME","FILE":"3724805","MEAN_MOTION":"15.08864639","REV_AT_EPOCH":"1989","MEAN_ELEMENT_THEORY":"SGP4","DECAY_DATE":null,"INCLINATION":"53.2157","MEAN_MOTION_DDOT":"0.0000000000000"},{"GP_ID":"221698627","PERIAPSIS":"538.494","EPOCH":"2022-12-28T20:24:22.941792","TLE_LINE1":"1 53532U 22101F   22362.85026553 -.00000546  00000-0 -16214-4 0  9998","MEAN_ANOMALY":"304.0167","APOAPSIS":"540.961","CENTER_NAME":"EARTH","SITE":"AFETR","COUNTRY_CODE":"US","EPHEMERIS_TYPE":"0","RA_OF_ASC_NODE":"272.2713","ARG_OF_PERICENTER":"56.0994","BSTAR":"-0.00001621400000","CLASSIFICATION_TYPE":"U","TIME_SYSTEM":"UTC","TLE_LINE2":"2 53532  53.2162 272.2713 0001783  56.0994 304.0167 15.08845707 20014","MEAN_MOTION_DOT":"-0.00000546","FILE":"3725038","REF_FRAME":"TEME","ECCENTRICITY":"0.00017830","SEMIMAJOR_AXIS":"6917.863","LAUNCH_DATE":"2022-08-19","ELEMENT_SET_NO":"999","OBJECT_ID":"2022-101F","MEAN_MOTION_DDOT":"0.0000000000000","INCLINATION":"53.2162","DECAY_DATE":null,"MEAN_ELEMENT_THEORY":"SGP4","REV_AT_EPOCH":"2001","MEAN_MOTION":"15.08845707","OBJECT_TYPE":"PAYLOAD","OBJECT_NAME":"STARLINK-4483","RCS_SIZE":"LARGE","NORAD_CAT_ID":"53532","PERIOD":"95.437"},{"PERIAPSIS":"538.459","EPOCH":"2022-12-27T23:40:27.090624","TLE_LINE1":"1 53533U 22101G   22361.98642466  .00005760  00000-0  37951-3 0  9990","GP_ID":"221697164","CENTER_NAME":"EARTH","SITE":"AFETR","COUNTRY_CODE":"US","EPHEMERIS_TYPE":"0","MEAN_ANOMALY":"305.0957","APOAPSIS":"540.937","ARG_OF_PERICENTER":"55.0203","BSTAR":"0.00037951000000","CLASSIFICATION_TYPE":"U","RA_OF_ASC_NODE":"276.1469","MEAN_MOTION_DOT":"0.00005760","TIME_SYSTEM":"UTC","TLE_LINE2":"2 53533  53.2175 276.1469 0001791  55.0203 305.0957 15.08855546 19884","ELEMENT_SET_NO":"999","OBJECT_ID":"2022-101G","FILE":"3725038","REF_FRAME":"TEME","ECCENTRICITY":"0.00017910","SEMIMAJOR_AXIS":"6917.833","LAUNCH_DATE":"2022-08-19","DECAY_DATE":null,"MEAN_ELEMENT_THEORY":"SGP4","REV_AT_EPOCH":"1988","MEAN_MOTION":"15.08855546","MEAN_MOTION_DDOT":"0.0000000000000","INCLINATION":"53.2175","RCS_SIZE":"LARGE","OBJECT_TYPE":"PAYLOAD","OBJECT_NAME":"STARLINK-4493","PERIOD":"95.437","NORAD_CAT_ID":"53533"},{"GP_ID":"221697807","TLE_LINE1":"1 53534U 22101H   22362.04065740  .00003421  00000-0  23284-3 0  9999","PERIAPSIS":"538.000","EPOCH":"2022-12-28T00:58:32.799360","MEAN_ANOMALY":"327.3451","APOAPSIS":"541.374","SITE":"AFETR","COUNTRY_CODE":"US","EPHEMERIS_TYPE":"0","CENTER_NAME":"EARTH","RA_OF_ASC_NODE":"275.9012","CLASSIFICATION_TYPE":"U","BSTAR":"0.00023284000000","ARG_OF_PERICENTER":"32.7692","TIME_SYSTEM":"UTC","TLE_LINE2":"2 53534  53.2183 275.9012 0002439  32.7692 327.3451 15.08859078 19890","MEAN_MOTION_DOT":"0.00003421","ECCENTRICITY":"0.00024390","LAUNCH_DATE":"2022-08-19","SEMIMAJOR_AXIS":"6917.822","FILE":"3725038","REF_FRAME":"TEME","OBJECT_ID":"2022-101H","ELEMENT_SET_NO":"999","INCLINATION":"53.2183","MEAN_MOTION_DDOT":"0.0000000000000","MEAN_MOTION":"15.08859078","DECAY_DATE":null,"MEAN_ELEMENT_THEORY":"SGP4","REV_AT_EPOCH":"1989","OBJECT_NAME":"STARLINK-4488","OBJECT_TYPE":"PAYLOAD","RCS_SIZE":"LARGE","NORAD_CAT_ID":"53534","PERIOD":"95.436"},{"RA_OF_ASC_NODE":"275.8671","ARG_OF_PERICENTER":"34.8858","BSTAR":"0.00036763000000","CLASSIFICATION_TYPE":"U","TIME_SYSTEM":"UTC","TLE_LINE2":"2 53535  53.2189 275.8671 0002254  34.8858 325.2281 15.08867051 19897","MEAN_MOTION_DOT":"0.00005572","GP_ID":"221698016","PERIAPSIS":"538.103","EPOCH":"2022-12-28T01:09:08.669664","TLE_LINE1":"1 53535U 22101J   22362.04801701  .00005572  00000-0  36763-3 0  9990","MEAN_ANOMALY":"325.2281","APOAPSIS":"541.222","CENTER_NAME":"EARTH","SITE":"AFETR","COUNTRY_CODE":"US","EPHEMERIS_TYPE":"0","OBJECT_TYPE":"PAYLOAD","OBJECT_NAME":"STARLINK-4138","RCS_SIZE":"LARGE","NORAD_CAT_ID":"53535","PERIOD":"95.436","FILE":"3725038","REF_FRAME":"TEME","ECCENTRICITY":"0.00022540","LAUNCH_DATE":"2022-08-19","SEMIMAJOR_AXIS":"6917.798","ELEMENT_SET_NO":"999","OBJECT_ID":"2022-101J","INCLINATION":"53.2189","MEAN_MOTION_DDOT":"0.0000000000000","MEAN_ELEMENT_THEORY":"SGP4","DECAY_DATE":null,"REV_AT_EPOCH":"1989","MEAN_MOTION":"15.08867051"},{"GP_ID":"221665701","EPOCH":"2022-12-28T02:57:00.567072","PERIAPSIS":"543.201","TLE_LINE1":"1 53536U 22101K   22362.12292323  .00002479  00000-0  18141-3 0  9997","APOAPSIS":"546.239","MEAN_ANOMALY":"320.2053","CENTER_NAME":"EARTH","EPHEMERIS_TYPE":"0","COUNTRY_CODE":"US","SITE":"AFETR","RA_OF_ASC_NODE":"265.1115","ARG_OF_PERICENTER":"39.9099","BSTAR":"0.00018141000000","CLASSIFICATION_TYPE":"U","TLE_LINE2":"2 53536  53.2163 265.1115 0002194  39.9099 320.2053 15.07213853 20046","TIME_SYSTEM":"UTC","MEAN_MOTION_DOT":"0.00002479","REF_FRAME":"TEME","FILE":"3724805","SEMIMAJOR_AXIS":"6922.855","LAUNCH_DATE":"2022-08-19","ECCENTRICITY":"0.00021940","ELEMENT_SET_NO":"999","OBJECT_ID":"2022-101K","MEAN_MOTION_DDOT":"0.0000000000000","INCLINATION":"53.2163","REV_AT_EPOCH":"2004","DECAY_DATE":null,"MEAN_ELEMENT_THEORY":"SGP4","MEAN_MOTION":"15.07213853","OBJECT_TYPE":"PAYLOAD","OBJECT_NAME":"STARLINK-4053","RCS_SIZE":"LARGE","NORAD_CAT_ID":"53536","PERIOD":"95.541"},{"TLE_LINE1":"1 53537U 22101L   22362.05169768  .00002960  00000-0  20390-3 0  9990","EPOCH":"2022-12-28T01:14:26.679552","PERIAPSIS":"538.049","GP_ID":"221697598","COUNTRY_CODE":"US","SITE":"AFETR","EPHEMERIS_TYPE":"0","CENTER_NAME":"EARTH","MEAN_ANOMALY":"320.1784","APOAPSIS":"541.328","BSTAR":"0.00020390000000","CLASSIFICATION_TYPE":"U","ARG_OF_PERICENTER":"39.9382","RA_OF_ASC_NODE":"275.8496","MEAN_MOTION_DOT":"0.00002960","TIME_SYSTEM":"UTC","TLE_LINE2":"2 53537  53.2193 275.8496 0002370  39.9382 320.1784 15.08858488 19892","OBJECT_ID":"2022-101L","ELEMENT_SET_NO":"999","ECCENTRICITY":"0.00023700","LAUNCH_DATE":"2022-08-19","SEMIMAJOR_AXIS":"6917.824","FILE":"3725038","REF_FRAME":"TEME","MEAN_MOTION":"15.08858488","MEAN_ELEMENT_THEORY":"SGP4","DECAY_DATE":null,"REV_AT_EPOCH":"1989","MEAN_MOTION_DDOT":"0.0000000000000","INCLINATION":"53.2193","RCS_SIZE":"LARGE","OBJECT_NAME":"STARLINK-4120","OBJECT_TYPE":"PAYLOAD","PERIOD":"95.436","NORAD_CAT_ID":"53537"},{"NORAD_CAT_ID":"53538","PERIOD":"95.439","OBJECT_TYPE":"PAYLOAD","OBJECT_NAME":"STARLINK-4118","RCS_SIZE":"LARGE","MEAN_MOTION_DDOT":"0.0000000000000","INCLINATION":"53.2148","MEAN_ELEMENT_THEORY":"SGP4","DECAY_DATE":null,"REV_AT_EPOCH":"2081","MEAN_MOTION":"15.08818141","FILE":"3725038","REF_FRAME":"TEME","ECCENTRICITY":"0.00020360","LAUNCH_DATE":"2022-08-19","SEMIMAJOR_AXIS":"6917.947","ELEMENT_SET_NO":"999","OBJECT_ID":"2022-101M","TIME_SYSTEM":"UTC","TLE_LINE2":"2 53538  53.2148 262.9835 0002036  53.5413 306.5767 15.08818141 20818","MEAN_MOTION_DOT":"-0.00007870","RA_OF_ASC_NODE":"262.9835","ARG_OF_PERICENTER":"53.5413","CLASSIFICATION_TYPE":"U","BSTAR":"-0.00047717000000","MEAN_ANOMALY":"306.5767","APOAPSIS":"541.221","CENTER_NAME":"EARTH","SITE":"AFETR","COUNTRY_CODE":"US","EPHEMERIS_TYPE":"0","GP_ID":"221697374","PERIAPSIS":"538.404","EPOCH":"2022-12-28T16:32:33.218304","TLE_LINE1":"1 53538U 22101M   22362.68927336 -.00007870  00000-0 -47717-3 0  9992"},{"ELEMENT_SET_NO":"999","OBJECT_ID":"2022-101N","FILE":"3725038","REF_FRAME":"TEME","ECCENTRICITY":"0.00017730","LAUNCH_DATE":"2022-08-19","SEMIMAJOR_AXIS":"6917.808","DECAY_DATE":null,"MEAN_ELEMENT_THEORY":"SGP4","REV_AT_EPOCH":"1989","MEAN_MOTION":"15.08863695","MEAN_MOTION_DDOT":"0.0000000000000","INCLINATION":"53.2197","RCS_SIZE":"LARGE","OBJECT_TYPE":"PAYLOAD","OBJECT_NAME":"STARLINK-4123","PERIOD":"95.436","NORAD_CAT_ID":"53539","EPOCH":"2022-12-28T01:03:50.835168","PERIAPSIS":"538.446","TLE_LINE1":"1 53539U 22101N   22362.04433837  .00004982  00000-0  33071-3 0  9998","GP_ID":"221698427","CENTER_NAME":"EARTH","COUNTRY_CODE":"US","SITE":"AFETR","EPHEMERIS_TYPE":"0","MEAN_ANOMALY":"298.2319","APOAPSIS":"540.899","ARG_OF_PERICENTER":"61.8852","CLASSIFICATION_TYPE":"U","BSTAR":"0.00033071000000","RA_OF_ASC_NODE":"275.8819","MEAN_MOTION_DOT":"0.00004982","TIME_SYSTEM":"UTC","TLE_LINE2":"2 53539  53.2197 275.8819 0001773  61.8852 298.2319 15.08863695 19894"},{"TIME_SYSTEM":"UTC","TLE_LINE2":"2 53540  53.2159 265.6755 0002047  43.9557 316.1598 15.08848582 20729","MEAN_MOTION_DOT":"-0.00000141","RA_OF_ASC_NODE":"265.6755","BSTAR":"0.00000923710000","CLASSIFICATION_TYPE":"U","ARG_OF_PERICENTER":"43.9557","MEAN_ANOMALY":"316.1598","APOAPSIS":"541.135","SITE":"AFETR","COUNTRY_CODE":"US","EPHEMERIS_TYPE":"0","CENTER_NAME":"EARTH","GP_ID":"221666130","TLE_LINE1":"1 53540U 22101P   22362.08941725 -.00000141  00000-0  92371-5 0  9998","EPOCH":"2022-12-28T02:08:45.650400","PERIAPSIS":"538.303","NORAD_CAT_ID":"53540","PERIOD":"95.437","OBJECT_NAME":"STARLINK-4486","OBJECT_TYPE":"PAYLOAD","RCS_SIZE":"LARGE","MEAN_MOTION_DDOT":"0.0000000000000","INCLINATION":"53.2159","MEAN_MOTION":"15.08848582","MEAN_ELEMENT_THEORY":"SGP4","DECAY_DATE":null,"REV_AT_EPOCH":"2072","ECCENTRICITY":"0.00020470","SEMIMAJOR_AXIS":"6917.854","LAUNCH_DATE":"2022-08-19","FILE":"3724805","REF_FRAME":"TEME","OBJECT_ID":"2022-101P","ELEMENT_SET_NO":"999"}];
